NORAD_CAT_ID,OBJECT_NAME,OBJECT_TYPE,EPOCH,MEAN_MOTION,ECCENTRICITY,INCLINATION,RA_OF_ASC_NODE,ARG_OF_PERICENTER,MEAN_ANOMALY,BSTAR,MEAN_MOTION_DOT,MEAN_MOTION_DDOT,TLE_LINE0,TLE_LINE1,TLE_LINE2,SEMIMAJOR_AXIS,PERIOD,APOGEE,PERIGEE,DECAYED
50842.0,STARLINK-3302,PAYLOAD,2023-12-25 19:01:50,15.08836411,0.0001366,53.216,192.4441,75.5035,284.6108,8.138e-05,1.007e-05,0.0,0 STARLINK-3302,1 50842U 22001AR  23359.79294063  .00001007  00000-0  81380-4 0  9998,2 50842  53.2160 192.4441 0001366  75.5035 284.6108 15.08836411110035,6917.891,95.438,540.701,538.811,0.0
50842.0,STARLINK-3302,PAYLOAD,2023-12-25 22:12:36,15.08830884,0.0001368,53.2161,191.8503,62.0357,298.0773,0.00013474,1.857e-05,0.0,0 STARLINK-3302,1 50842U 22001AR  23359.92542386  .00001857  00000-0  13474-3 0  9998,2 50842  53.2161 191.8503 0001368  62.0357 298.0773 15.08830884108760,6917.908,95.438,540.72,538.827,0.0
50842.0,STARLINK-3302,PAYLOAD,2023-12-26 12:31:07,15.08813486,0.0001795,53.2158,189.1745,63.8506,296.267,-0.00017014,-2.993e-05,0.0,0 STARLINK-3302,1 50842U 22001AR  23360.52161215 -.00002993  00000-0 -17014-3 0  9992,2 50842  53.2158 189.1745 0001795  63.8506 296.2670 15.08813486108858,6917.961,95.439,541.068,538.585,0.0
50842.0,STARLINK-3302,PAYLOAD,2023-12-26 18:52:38,15.08834987,0.0001422,53.2159,187.9838,73.1909,286.9239,2.1719e-06,-2.53e-06,0.0,0 STARLINK-3302,1 50842U 22001AR  23360.78655577 -.00000253  00000-0  21719-5 0  9994,2 50842  53.2159 187.9838 0001422  73.1909 286.9239 15.08834987110181,6917.896,95.438,540.744,538.777,0.0
50842.0,STARLINK-3302,PAYLOAD,2023-12-26 20:28:01,15.08836965,0.0001406,53.2161,187.6859,77.4691,282.6458,9.7335e-06,-1.33e-06,0.0,0 STARLINK-3302,1 50842U 22001AR  23360.85279427 -.00000133  00000-0  97335-5 0  9992,2 50842  53.2161 187.6859 0001406  77.4691 282.6458 15.08836965108902,6917.89,95.438,540.727,538.782,0.0
50842.0,STARLINK-3302,PAYLOAD,2023-12-27 18:43:25,15.08841236,0.0001434,53.2164,183.5218,75.591,284.5241,0.00014792,2.067e-05,0.0,0 STARLINK-3302,1 50842U 22001AR  23361.78015140  .00002067  00000-0  14792-3 0  9996,2 50842  53.2164 183.5218 0001434  75.5910 284.5241 15.08841236110331,6917.877,95.437,540.734,538.75,0.0
50842.0,STARLINK-3302,PAYLOAD,2023-12-27 21:54:11,15.08842258,0.0001395,53.2163,182.927,79.9313,280.1837,0.00015457,2.173e-05,0.0,0 STARLINK-3302,1 50842U 22001AR  23361.91263033  .00002173  00000-0  15457-3 0  9994,2 50842  53.2163 182.9270 0001395  79.9313 280.1837 15.08842258109068,6917.873,95.437,540.704,538.773,0.0
50842.0,STARLINK-3302,PAYLOAD,2023-12-28 12:12:39,15.08850309,0.0001243,53.2161,180.2503,93.1931,266.9203,0.00016486,2.338e-05,0.0,0 STARLINK-3302,1 50842U 22001AR  23362.50878813  .00002338  00000-0  16486-3 0  9994,2 50842  53.2161 180.2503 0001243  93.1931 266.9203 15.08850309109157,6917.849,95.437,540.574,538.854,0.0
50842.0,STARLINK-3302,PAYLOAD,2023-12-28 18:34:11,15.08854335,0.0001274,53.2161,179.0612,89.7216,270.3922,0.0002,2.898e-05,0.0,0 STARLINK-3302,1 50842U 22001AR  23362.77374390  .00002898  00000-0  20000-3 0  9992,2 50842  53.2161 179.0612 0001274  89.7216 270.3922 15.08854335109199,6917.837,95.437,540.583,538.82,0.0
50842.0,STARLINK-3302,PAYLOAD,2023-12-29 12:03:25,15.08853998,0.0001414,53.2168,175.7931,86.5438,273.5716,6.8811e-05,8.08e-06,0.0,0 STARLINK-3302,1 50842U 22001AR  23363.50238324  .00000808  00000-0  68811-4 0  9992,2 50842  53.2168 175.7931 0001414  86.5438 273.5716 15.08853998110596,6917.838,95.437,540.681,538.724,0.0
50842.0,STARLINK-3302,PAYLOAD,2023-12-29 16:49:35,15.08851263,0.0001368,53.2168,174.9001,91.6404,268.4745,4.0539e-05,3.57e-06,0.0,0 STARLINK-3302,1 50842U 22001AR  23363.70110280  .00000357  00000-0  40539-4 0  9990,2 50842  53.2168 174.9001 0001368  91.6404 268.4745 15.08851263109331,6917.846,95.437,540.657,538.765,0.0
50842.0,STARLINK-3302,PAYLOAD,2023-12-30 11:54:12,15.08847518,0.0001419,53.2169,171.3319,96.1546,263.9607,-2.0982e-05,-6.22e-06,0.0,0 STARLINK-3302,1 50842U 22001AR  23364.49598158 -.00000622  00000-0 -20982-4 0  9998,2 50842  53.2169 171.3319 0001419  96.1546 263.9607 15.08847518110741,6917.857,95.437,540.704,538.741,0.0
50842.0,STARLINK-3302,PAYLOAD,2023-12-30 16:40:22,15.08846564,0.0001407,53.2169,170.4395,99.7636,260.3515,-3.5942e-05,-8.6e-06,0.0,0 STARLINK-3302,1 50842U 22001AR  23364.69470094 -.00000860  00000-0 -35942-4 0  9994,2 50842  53.2169 170.4395 0001407  99.7636 260.3515 15.08846564109489,6917.86,95.437,540.699,538.752,0.0
50842.0,STARLINK-3302,PAYLOAD,2023-12-31 10:09:36,15.08839586,0.0001305,53.2168,167.17,85.2355,274.8786,1.0925e-05,-1.14e-06,0.0,0 STARLINK-3302,1 50842U 22001AR  23365.42334227 -.00000114  00000-0  10925-4 0  9998,2 50842  53.2168 167.1700 0001305  85.2355 274.8786 15.08839586110888,6917.882,95.438,540.649,538.844,0.0
50842.0,STARLINK-3302,PAYLOAD,2023-12-31 16:31:09,15.08837003,0.0001209,53.216,165.9775,85.1426,274.9704,-2.6892e-05,-7.16e-06,0.0,0 STARLINK-3302,1 50842U 22001AR  23365.68830501 -.00000716  00000-0 -26892-4 0  9991,2 50842  53.2160 165.9775 0001209  85.1426 274.9704 15.08837003109633,6917.89,95.438,540.591,538.918,0.0
50842.0,STARLINK-3302,PAYLOAD,2024-01-01 14:46:33,15.08841139,0.0001183,53.2161,161.8146,81.7994,278.3132,6.3295e-05,7.2e-06,0.0,0 STARLINK-3302,1 50842U 22001AR  24001.61566018  .00000720  00000-0  63295-4 0  9992,2 50842  53.2161 161.8146 0001183  81.7994 278.3132 15.08841139109777,6917.877,95.437,540.56,538.924,0.0
50842.0,STARLINK-3302,PAYLOAD,2024-01-01 17:57:19,15.08843834,0.0001228,53.2162,161.2198,75.8849,284.228,8.553e-05,1.074e-05,0.0,0 STARLINK-3302,1 50842U 22001AR  24001.74813806  .00001074  00000-0  85530-4 0  9995,2 50842  53.2162 161.2198 0001228  75.8849 284.2280 15.08843834111083,6917.869,95.437,540.583,538.884,0.0
50842.0,STARLINK-3302,PAYLOAD,2024-01-02 09:51:11,15.08829153,0.0001561,53.2156,158.2479,61.5735,298.5414,4.5549e-05,4.37e-06,0.0,0 STARLINK-3302,1 50842U 22001AR  24002.41055222  .00000437  00000-0  45549-4 0  9998,2 50842  53.2156 158.2479 0001561  61.5735 298.5414 15.08829153111186,6917.914,95.438,540.858,538.699,0.0
50842.0,STARLINK-3302,PAYLOAD,2024-01-02 14:37:21,15.08827963,0.0001419,53.2163,157.3543,70.0537,290.0608,-2.9759e-06,-3.35e-06,0.0,0 STARLINK-3302,1 50842U 22001AR  24002.60927559 -.00000335  00000-0 -29759-5 0  9995,2 50842  53.2163 157.3543 0001419  70.0537 290.0608 15.08827963109921,6917.917,95.438,540.764,538.801,0.0
50842.0,STARLINK-3302,PAYLOAD,2024-01-02 17:48:07,15.08829846,0.0001346,53.2165,156.7582,85.2073,274.9073,-6.4777e-06,-3.91e-06,0.0,0 STARLINK-3302,1 50842U 22001AR  24002.74175453 -.00000391  00000-0 -64777-5 0  9999,2 50842  53.2165 156.7582 0001346  85.2073 274.9073 15.08829846109942,6917.911,95.438,540.708,538.845,0.0
50842.0,STARLINK-3302,PAYLOAD,2024-01-03 14:28:07,15.08843908,0.0001383,53.2166,152.8924,80.108,280.0068,1.7153e-05,-1.5e-07,0.0,0 STARLINK-3302,1 50842U 22001AR  24003.60286750 -.00000015  00000-0  17153-4 0  9995,2 50842  53.2166 152.8924 0001383  80.1080 280.0068 15.08843908110076,6917.868,95.437,540.69,538.777,0.0
50842.0,STARLINK-3302,PAYLOAD,2024-01-03 16:03:30,15.08845084,0.0001431,53.2166,152.5952,76.3681,283.747,3.1727e-05,2.17e-06,0.0,0 STARLINK-3302,1 50842U 22001AR  24003.66910659  .00000217  00000-0  31727-4 0  9999,2 50842  53.2166 152.5952 0001431  76.3681 283.7470 15.08845084111370,6917.865,95.437,540.72,538.74,0.0
50842.0,STARLINK-3302,PAYLOAD,2024-01-04 14:18:54,15.08840736,0.0001431,53.2168,148.4318,82.3995,277.7159,0.00012585,1.716e-05,0.0,0 STARLINK-3302,1 50842U 22001AR  24004.59646584  .00001716  00000-0  12585-3 0  9990,2 50842  53.2168 148.4318 0001431  82.3995 277.7159 15.08840736110226,6917.878,95.438,540.733,538.753,0.0
50842.0,STARLINK-3302,PAYLOAD,2024-01-04 15:54:17,15.08842115,0.000147,53.2168,148.1345,79.9644,280.1513,0.00013785,1.907e-05,0.0,0 STARLINK-3302,1 50842U 22001AR  24004.66270494  .00001907  00000-0  13785-3 0  9996,2 50842  53.2168 148.1345 0001470  79.9644 280.1513 15.08842115110235,6917.874,95.437,540.756,538.722,0.0
50842.0,STARLINK-3302,PAYLOAD,2024-01-05 12:34:18,15.0884159,0.000138,53.2161,144.2693,92.1549,267.9602,-6.9272e-06,-3.98e-06,0.0,0 STARLINK-3302,1 50842U 22001AR  24005.52382876 -.00000398  00000-0 -69272-5 0  9999,2 50842  53.2161 144.2693 0001380  92.1549 267.9602 15.08841590111657,6917.876,95.437,540.695,538.786,0.0
50842.0,STARLINK-3302,PAYLOAD,2024-01-05 14:09:41,15.08840892,0.0001333,53.216,143.9716,104.1646,255.9494,-1.2538e-05,-4.87e-06,0.0,0 STARLINK-3302,1 50842U 22001AR  24005.59006856 -.00000487  00000-0 -12538-4 0  9998,2 50842  53.2160 143.9716 0001333 104.1646 255.9494 15.08840892110376,6917.878,95.437,540.665,538.821,0.0
50842.0,STARLINK-3302,PAYLOAD,2024-01-05 15:45:05,15.08840957,0.0001297,53.2161,143.6746,98.1875,261.9265,-1.1824e-05,-4.76e-06,0.0,0 STARLINK-3302,1 50842U 22001AR  24005.65630863 -.00000476  00000-0 -11824-4 0  9991,2 50842  53.2161 143.6746 0001297  98.1875 261.9265 15.08840957110388,6917.877,95.437,540.64,538.845,0.0
50842.0,STARLINK-3302,PAYLOAD,2024-01-06 12:25:05,15.08845616,0.000119,53.2165,139.8093,88.9086,271.2042,-7.2966e-05,-1.449e-05,0.0,0 STARLINK-3302,1 50842U 22001AR  24006.51742838 -.00001449  00000-0 -72966-4 0  9998,2 50842  53.2165 139.8093 0001190  88.9086 271.2042 15.08845616110516,6917.863,95.437,540.551,538.905,0.0
50842.0,STARLINK-3302,PAYLOAD,2024-01-06 18:46:38,15.08841601,0.0001281,53.2162,138.619,102.6992,257.4143,2.7862e-05,1.56e-06,0.0,0 STARLINK-3302,1 50842U 22001AR  24006.78238594  .00000156  00000-0  27862-4 0  9993,2 50842  53.2162 138.6190 0001281 102.6992 257.4143 15.08841601111844,6917.875,95.437,540.627,538.854,0.0
50842.0,STARLINK-3302,PAYLOAD,2024-01-07 12:15:53,15.08835277,0.0001211,53.2165,135.3492,88.9941,271.119,2.9261e-05,1.78e-06,0.0,0 STARLINK-3302,1 50842U 22001AR  24007.51103192  .00000178  00000-0  29261-4 0  9999,2 50842  53.2165 135.3492 0001211  88.9941 271.1190 15.08835277111958,6917.895,95.438,540.598,538.922,0.0
